COMMENT,ORIGINATOR,NORAD_CAT_ID,OBJECT_NAME,OBJECT_TYPE,CLASSIFICATION_TYPE,INTLDES,EPOCH,EPOCH_MICROSECONDS,MEAN_MOTION,ECCENTRICITY,INCLINATION,RA_OF_ASC_NODE,ARG_OF_PERICENTER,MEAN_ANOMALY,EPHEMERIS_TYPE,ELEMENT_SET_NO,REV_AT_EPOCH,BSTAR,MEAN_MOTION_DOT,MEAN_MOTION_DDOT,FILE,TLE_LINE0,TLE_LINE1,TLE_LINE2,OBJECT_ID,OBJECT_NUMBER,SEMIMAJOR_AXIS,PERIOD,APOGEE,PERIGEE,DECAYED
"GENERATED VIA SPACETRACK.ORG API","18 SPCS","56232","FENGYUN 3G","PAYLOAD","U","23055A","2023-08-12 10:43:56","233632","15.52614988","0.0005655","49.999","307.4891","311.6555","48.3928","0","999","1839","0.00045671","0.00028309","0","3978596","0 FENGYUN 3G","1 56232U 23055A   23224.44717863  .00028309  00000-0  45671-3 0  9994","2 56232  49.9990 307.4891 0005655 311.6555  48.3928 15.52614988 18393","2023-055A","56232","6787.231","92.747","412.935","405.258","0"
"GENERATED VIA SPACETRACK.ORG API","18 SPCS","56232","FENGYUN 3G","PAYLOAD","U","23055A","2023-08-12 16:54:38","364480","15.52631322","0.000569","49.999","306.1629","312.8307","47.2181","0","999","1843","0.00046976","0.00029152","0","3978832","0 FENGYUN 3G","1 56232U 23055A   23224.70461070  .00029152  00000-0  46976-3 0  9995","2 56232  49.9990 306.1629 0005690 312.8307  47.2181 15.52631322 18430","2023-055A","56232","6787.184","92.746","412.911","405.187","0"
"GENERATED VIA SPACETRACK.ORG API","18 SPCS","56232","FENGYUN 3G","PAYLOAD","U","23055A","2023-08-13 02:10:41","171520","15.52652965","0.0005662","49.999","304.173","314.1906","45.8595","0","999","1849","0.000454","0.00028176","0","3979103","0 FENGYUN 3G","1 56232U 23055A   23225.09075430  .00028176  00000-0  45400-3 0  9995","2 56232  49.9990 304.1730 0005662 314.1906  45.8595 15.52652965 18495","2023-055A","56232","6787.121","92.744","412.829","405.143","0"
"GENERATED VIA SPACETRACK.ORG API","18 SPCS","56232","FENGYUN 3G","PAYLOAD","U","23055A","2023-08-13 09:54:03","168288","15.52671074","0.0005664","49.9991","302.5157","315.9653","44.0862","0","999","1854","0.00044799","0.00027814","0","3979414","0 FENGYUN 3G","1 56232U 23055A   23225.41253667  .00027814  00000-0  44799-3 0  9999","2 56232  49.9991 302.5157 0005664 315.9653  44.0862 15.52671074 18547","2023-055A","56232","6787.068","92.743","412.777","405.089","0"
"GENERATED VIA SPACETRACK.ORG API","18 SPCS","56232","FENGYUN 3G","PAYLOAD","U","23055A","2023-08-13 16:04:44","530176","15.52685299","0.0005696","49.9989","301.1895","317.3682","42.6842","0","999","1858","0.00043688","0.00027125","0","3979622","0 FENGYUN 3G","1 56232U 23055A   23225.66995984  .00027125  00000-0  43688-3 0  9992","2 56232  49.9989 301.1895 0005696 317.3682  42.6842 15.52685299 18581","2023-055A","56232","6787.027","92.743","412.757","405.026","0"
"GENERATED VIA SPACETRACK.ORG API","18 SPCS","56232","FENGYUN 3G","PAYLOAD","U","23055A","2023-08-14 01:20:46","177728","15.52705781","0.0005652","49.9988","299.1995","318.6881","41.3659","0","999","1864","0.00042044","0.00026102","0","3979907","0 FENGYUN 3G","1 56232U 23055A   23226.05609002  .00026102  00000-0  42044-3 0  9998","2 56232  49.9988 299.1995 0005652 318.6881  41.3659 15.52705781 18642","2023-055A","56232","6786.967","92.741","412.668","404.996","0"
"GENERATED VIA SPACETRACK.ORG API","18 SPCS","56232","FENGYUN 3G","PAYLOAD","U","23055A","2023-08-14 09:04:07","248288","15.52722494","0.0005637","49.9986","297.542","320.4118","39.6437","0","999","1869","0.00042012","0.00026098","0","3980208","0 FENGYUN 3G","1 56232U 23055A   23226.37786167  .00026098  00000-0  42012-3 0  9990","2 56232  49.9986 297.5420 0005637 320.4118  39.6437 15.52722494 18691","2023-055A","56232","6786.918","92.740","412.609","404.957","0"
"GENERATED VIA SPACETRACK.ORG API","18 SPCS","56232","FENGYUN 3G","PAYLOAD","U","23055A","2023-08-14 18:20:08","145024","15.52742235","0.0005659","49.9983","295.5523","322.189","37.8679","0","999","1875","0.00041587","0.00025847","0","3980443","0 FENGYUN 3G","1 56232U 23055A   23226.76398316  .00025847  00000-0  41587-3 0  9995","2 56232  49.9983 295.5523 0005659 322.1890  37.8679 15.52742235 18750","2023-055A","56232","6786.861","92.739","412.566","404.885","0"
"GENERATED VIA SPACETRACK.ORG API","18 SPCS","56232","FENGYUN 3G","PAYLOAD","U","23055A","2023-08-14 21:25:28","337376","15.52749015","0.0005637","49.9984","294.8889","322.5707","37.4867","0","999","1877","0.00042298","0.00026305","0","3980735","0 FENGYUN 3G","1 56232U 23055A   23226.89268909  .00026305  00000-0  42298-3 0  9993","2 56232  49.9984 294.8889 0005637 322.5707  37.4867 15.52749015 18775","2023-055A","56232","6786.841","92.739","412.532","404.880","0"
"GENERATED VIA SPACETRACK.ORG API","18 SPCS","56232","FENGYUN 3G","PAYLOAD","U","23055A","2023-08-15 09:46:48","671328","15.52776189","0.0005632","49.9981","292.2366","324.9065","35.1531","0","999","1885","0.00044974","0.00028033","0","3981025","0 FENGYUN 3G","1 56232U 23055A   23227.40750777  .00028033  00000-0  44974-3 0  9993","2 56232  49.9981 292.2366 0005632 324.9065  35.1531 15.52776189 18856","2023-055A","56232","6786.762","92.737","412.449","404.804","0"
"GENERATED VIA SPACETRACK.ORG API","18 SPCS","56232","FENGYUN 3G","PAYLOAD","U","23055A","2023-08-15 17:30:08","458848","15.527942","0.0005656","49.9979","290.5783","326.3232","33.7375","0","999","1890","0.00044783","0.0002793","0","3981304","0 FENGYUN 3G","1 56232U 23055A   23227.72926457  .00027930  00000-0  44783-3 0  9991","2 56232  49.9979 290.5783 0005656 326.3232  33.7375 15.52794200 18905","2023-055A","56232","6786.709","92.736","412.413","404.736","0"
"GENERATED VIA SPACETRACK.ORG API","18 SPCS","56232","FENGYUN 3G","PAYLOAD","U","23055A","2023-08-16 02:46:07","785696","15.52816026","0.0005615","49.9979","288.5882","327.8386","32.2238","0","999","1896","0.00046144","0.00028819","0","3981600","0 FENGYUN 3G","1 56232U 23055A   23228.11536789  .00028819  00000-0  46144-3 0  9990","2 56232  49.9979 288.5882 0005615 327.8386  32.2238 15.52816026 18962","2023-055A","56232","6786.646","92.735","412.321","404.700","0"
"GENERATED VIA SPACETRACK.ORG API","18 SPCS","56232","FENGYUN 3G","PAYLOAD","U","23055A","2023-08-16 04:44:02","316192","15.52824269","0.000571","49.9999","288.1596","332.2934","125.8528","0","999","1897","0.00048675","0.00030441","0","3981616","0 FENGYUN 3G","1 56232U 23055A   23228.19724903  .00030441  00000-0  48675-3 0  9990","2 56232  49.9999 288.1596 0005710 332.2934 125.8528 15.52824269 18977","2023-055A","56232","6786.622","92.734","412.362","404.611","0"
"GENERATED VIA SPACETRACK.ORG API","18 SPCS","56232","FENGYUN 3G","PAYLOAD","U","23055A","2023-08-16 10:29:26","824992","15.52835031","0.0005618","49.998","286.9307","329.3678","30.6961","0","999","1901","0.00046284","0.00028928","0","3981901","0 FENGYUN 3G","1 56232U 23055A   23228.43711603  .00028928  00000-0  46284-3 0  9991","2 56232  49.9980 286.9307 0005618 329.3678  30.6961 15.52835031 19011","2023-055A","56232","6786.590","92.734","412.268","404.643","0"
"GENERATED VIA SPACETRACK.ORG API","18 SPCS","56232","FENGYUN 3G","PAYLOAD","U","23055A","2023-08-16 15:42:32","795136","15.52846631","0.0005487","50.0011","285.7994","331.0955","165.3888","0","999","1904","0.00043393","0.00027096","0","3981942","0 FENGYUN 3G","1 56232U 23055A   23228.65454624  .00027096  00000-0  43393-3 0  9995","2 56232  50.0011 285.7994 0005487 331.0955 165.3888 15.52846631 19045","2023-055A","56232","6786.556","92.733","412.145","404.698","0"
"GENERATED VIA SPACETRACK.ORG API","18 SPCS","56232","FENGYUN 3G","PAYLOAD","U","23055A","2023-08-16 16:40:05","829888","15.52850265","0.0005647","49.9978","285.6038","330.4781","29.5867","0","999","1905","0.00045578","0.00028494","0","3982134","0 FENGYUN 3G","1 56232U 23055A   23228.69451192  .00028494  00000-0  45578-3 0  9996","2 56232  49.9978 285.6038 0005647 330.4781  29.5867 15.52850265 19057","2023-055A","56232","6786.546","92.733","412.243","404.578","0"
"GENERATED VIA SPACETRACK.ORG API","18 SPCS","56232","FENGYUN 3G","PAYLOAD","U","23055A","2023-08-17 02:17:37","156416","15.52870535","0.0005511","50.0008","283.5265","332.4712","111.3392","0","999","1911","0.0004327","0.00027042","0","3982201","0 FENGYUN 3G","1 56232U 23055A   23229.09556894  .00027042  00000-0  43270-3 0  9991","2 56232  50.0008 283.5265 0005511 332.4712 111.3392 15.52870535 19111","2023-055A","56232","6786.487","92.731","412.092","404.612","0"
"GENERATED VIA SPACETRACK.ORG API","18 SPCS","56232","FENGYUN 3G","PAYLOAD","U","23055A","2023-08-17 08:32:49","943904","15.52891685","0.0005599","49.9999","282.1934","334.6784","126.8966","0","999","1915","0.00048082","0.00030137","0","3982463","0 FENGYUN 3G","1 56232U 23055A   23229.35613361  .00030137  00000-0  48082-3 0  9998","2 56232  49.9999 282.1934 0005599 334.6784 126.8966 15.52891685 19155","2023-055A","56232","6786.425","92.730","412.090","404.490","0"
"GENERATED VIA SPACETRACK.ORG API","18 SPCS","56232","FENGYUN 3G","PAYLOAD","U","23055A","2023-08-17 09:39:21","854592","15.52895198","0.0005632","49.9977","281.956","334.0513","26.0172","0","999","1916","0.00047186","0.00029569","0","3982749","0 FENGYUN 3G","1 56232U 23055A   23229.40233628  .00029569  00000-0  47186-3 0  9999","2 56232  49.9977 281.9560 0005632 334.0513  26.0172 15.52895198 19169","2023-055A","56232","6786.415","92.730","412.102","404.458","0"
"GENERATED VIA SPACETRACK.ORG API","18 SPCS","56232","FENGYUN 3G","PAYLOAD","U","23055A","2023-08-17 16:13:12","252864","15.52908487","0.00055","50.0006","280.5403","337.0651","113.1566","0","999","1920","0.000457","0.00028632","0","3982783","0 FENGYUN 3G","1 56232U 23055A   23229.67583626  .00028632  00000-0  45700-3 0  9994","2 56232  50.0006 280.5403 0005500 337.0651 113.1566 15.52908487 19202","2023-055A","56232","6786.376","92.729","411.974","404.509","0"
